TIANMU-1 20             
1 58661U 23208B   26188.62591679  .00005717  00000+0  18133-3 0  9999
2 58661  97.4457 305.6927 0005771 243.3203 116.7449 15.33084443140555
TIANMU-1 21             
1 58662U 23208C   26188.58313943  .00006572  00000+0  19308-3 0  9996
2 58662  97.4517 308.4196 0006046 234.3005 125.7677 15.35455389140699
TIANMU-1 22             
1 58663U 23208D   26188.59279125  .00005232  00000+0  17539-3 0  9997
2 58663  97.4511 304.9213 0002275 258.6848 101.4137 15.31353568140457
TIANMU-1 15             
1 58700U 24004A   26188.61076050  .00003760  00000+0  14530-3 0  9991
2 58700  97.4675  14.8015 0005671 261.9240  98.1355 15.26861108138890
TIANMU-1 16             
1 58701U 24004B   26188.60073883  .00003643  00000+0  14045-3 0  9993
2 58701  97.4622  14.0122 0004314 282.6100  77.4656 15.26963442138890
TIANMU-1 17             
1 58702U 24004C   26188.65174269  .00003866  00000+0  14889-3 0  9992
2 58702  97.4649  14.5556 0003880 289.9126  70.1694 15.26962324138891
TIANMU-1 18             
1 58703U 24004D   26188.62741370  .00003587  00000+0  13868-3 0  9999
2 58703  97.4667  14.7932 0003382 262.1211  97.9644 15.26878938138896
INSAT-3DS               
1 58990U 24033A   26188.58905309 -.00000141  00000+0  00000+0 0  9992
2 58990   0.0825  95.5301 0001096  20.7460 103.4054  1.00272444 47277
METEOR-M2 4             
1 59051U 24039A   26188.65294921  .00000016  00000+0  27021-4 0  9993
2 59051  98.7020 147.6948 0008168 107.5089 252.6982 14.22431645122179
GOES 19                 
1 60133U 24119A   26188.55790471 -.00000233  00000+0  00000+0 0  9990
2 60133   0.0310 234.6001 0000465 309.8759 226.7010  1.00271759  7165
MTG-S1                  
1 64723U 25143A   26188.57263811  .00000007  00000+0  00000+0 0  9990
2 64723   0.5888 343.2085 0003276 262.1625 245.8712  1.00272519  3627
METOP-SGA1              
1 65159U 25172A   26188.15353631  .00000017  00000+0  28532-4 0  9996
2 65159  98.6633 247.4590 0007515 356.5025   3.6098 14.19818296 46621
FENGYUN 3H              
1 65815U 25219A   26188.26483788  .00000040  00000+0  39101-4 0  9996
2 65815  98.6771 128.6439 0001312  64.3708 295.7604 14.19923972 40232
