OBJECT_NAME,OBJECT_ID,EPOCH,MEAN_MOTION,ECCENTRICITY,INCLINATION,RA_OF_ASC_NODE,ARG_OF_PERICENTER,MEAN_ANOMALY,EPHEMERIS_TYPE,CLASSIFICATION_TYPE,NORAD_CAT_ID,ELEMENT_SET_NO,REV_AT_EPOCH,BSTAR,MEAN_MOTION_DOT,MEAN_MOTION_DDOT
TIANMU-1 20,2023-208B,2026-07-07T15:01:19.210656,15.33084443,.00057714,97.4457,305.6927,243.3203,116.7449,0,U,58661,999,14055,.18133162E-3,.5717E-4,0
TIANMU-1 21,2023-208C,2026-07-07T13:59:43.246752,15.35455389,.00060467,97.4517,308.4196,234.3005,125.7677,0,U,58662,999,14069,.19308321E-3,.6572E-4,0
TIANMU-1 22,2023-208D,2026-07-07T14:13:37.164000,15.31353568,.00022758,97.4511,304.9213,258.6848,101.4137,0,U,58663,999,14045,.17538608E-3,.5232E-4,0
TIANMU-1 15,2024-004A,2026-07-07T14:39:29.707200,15.26861108,.00056719,97.4675,14.8015,261.9240,98.1355,0,U,58700,999,13889,.14529523E-3,.376E-4,0
TIANMU-1 16,2024-004B,2026-07-07T14:25:03.834912,15.26963442,.00043147,97.4622,14.0122,282.6100,77.4656,0,U,58701,999,13889,.1404543E-3,.3643E-4,0
TIANMU-1 17,2024-004C,2026-07-07T15:38:30.568416,15.26962324,.00038809,97.4649,14.5556,289.9126,70.1694,0,U,58702,999,13889,.14889485E-3,.3866E-4,0
TIANMU-1 18,2024-004D,2026-07-07T15:03:28.543680,15.26878938,.00033824,97.4667,14.7932,262.1211,97.9644,0,U,58703,999,13889,.1386849E-3,.3587E-4,0
INSAT-3DS,2024-033A,2026-07-07T14:08:14.186976,1.00272444,.00010966,0.0825,95.5301,20.7460,103.4054,0,U,58990,999,4727,0,-.141E-5,0
METEOR-M2 4,2024-039A,2026-07-07T15:40:14.811744,14.22431645,.00081682,98.7020,147.6948,107.5089,252.6982,0,U,59051,999,12217,.27020917E-4,.16E-6,0
GOES 19,2024-119A,2026-07-07T13:23:22.966944,1.00271759,.00004659,0.0310,234.6001,309.8759,226.7010,0,U,60133,999,716,0,-.233E-5,0
MTG-S1,2025-143A,2026-07-07T13:44:35.932704,1.00272519,.00032763,0.5888,343.2085,262.1625,245.8712,0,U,64723,999,362,0,.7E-7,0
METOP-SGA1,2025-172A,2026-07-07T03:41:05.537184,14.19818296,.00075155,98.6633,247.4590,356.5025,3.6098,0,U,65159,999,4662,.28532483E-4,.17E-6,0
FENGYUN 3H,2025-219A,2026-07-07T06:21:21.992832,14.19923972,.00013129,98.6771,128.6439,64.3708,295.7604,0,U,65815,999,4023,.39100537E-4,.4E-6,0
